[{"OBJECT_NAME":"ONEWEB-0142","OBJECT_ID":"2020-100AG","EPOCH":"2025-07-29T14:19:02.839296","MEAN_MOTION":13.12443082,"ECCENTRICITY":0.0001355,"INCLINATION":87.8864,"RA_OF_ASC_NODE":54.7955,"ARG_OF_PERICENTER":84.2178,"MEAN_ANOMALY":275.9105,"EPHEMERIS_TYPE":0,"CLASSIFICATION_TYPE":"U","NORAD_CAT_ID":47288,"ELEMENT_SET_NO":999,"REV_AT_EPOCH":22235,"BSTAR":-0.0011453,"MEAN_MOTION_DOT":-3.99e-6,"MEAN_MOTION_DDOT":0},{"OBJECT_NAME":"ONEWEB-0143","OBJECT_ID":"2020-100AH","EPOCH":"2025-07-29T12:43:04.259424","MEAN_MOTION":13.12443035,"ECCENTRICITY":0.0001784,"INCLINATION":87.8862,"RA_OF_ASC_NODE":54.8068,"ARG_OF_PERICENTER":85.8882,"MEAN_ANOMALY":274.245,"EPHEMERIS_TYPE":0,"CLASSIFICATION_TYPE":"U","NORAD_CAT_ID":47289,"ELEMENT_SET_NO":999,"REV_AT_EPOCH":22232,"BSTAR":-0.0006936,"MEAN_MOTION_DOT":-2.37e-6,"MEAN_MOTION_DDOT":0},{"OBJECT_NAME":"ONEWEB-0144","OBJECT_ID":"2020-100AJ","EPOCH":"2025-07-29T13:53:08.765088","MEAN_MOTION":13.12440764,"ECCENTRICITY":0.000154,"INCLINATION":87.8846,"RA_OF_ASC_NODE":54.7767,"ARG_OF_PERICENTER":78.4988,"MEAN_ANOMALY":281.6313,"EPHEMERIS_TYPE":0,"CLASSIFICATION_TYPE":"U","NORAD_CAT_ID":47290,"ELEMENT_SET_NO":999,"REV_AT_EPOCH":22225,"BSTAR":-0.00027857,"MEAN_MOTION_DOT":-8.7e-7,"MEAN_MOTION_DDOT":0},{"OBJECT_NAME":"ONEWEB-0145","OBJECT_ID":"2020-100AK","EPOCH":"2025-07-29T13:11:06.539136","MEAN_MOTION":13.12443079,"ECCENTRICITY":0.0001715,"INCLINATION":87.8861,"RA_OF_ASC_NODE":54.8097,"ARG_OF_PERICENTER":82.6375,"MEAN_ANOMALY":277.4948,"EPHEMERIS_TYPE":0,"CLASSIFICATION_TYPE":"U","NORAD_CAT_ID":47291,"ELEMENT_SET_NO":999,"REV_AT_EPOCH":22244,"BSTAR":0.00090208,"MEAN_MOTION_DOT":3.37e-6,"MEAN_MOTION_DDOT":0},{"OBJECT_NAME":"ONEWEB-0146","OBJECT_ID":"2020-100AL","EPOCH":"2025-07-29T13:06:26.141760","MEAN_MOTION":13.12442876,"ECCENTRICITY":0.0002064,"INCLINATION":87.8854,"RA_OF_ASC_NODE":54.7972,"ARG_OF_PERICENTER":91.6907,"MEAN_ANOMALY":268.4458,"EPHEMERIS_TYPE":0,"CLASSIFICATION_TYPE":"U","NORAD_CAT_ID":47292,"ELEMENT_SET_NO":999,"REV_AT_EPOCH":22235,"BSTAR":0.00053272,"MEAN_MOTION_DOT":2.04e-6,"MEAN_MOTION_DDOT":0},{"OBJECT_NAME":"ONEWEB-0147","OBJECT_ID":"2020-100AM","EPOCH":"2025-07-29T14:07:09.393024","MEAN_MOTION":13.12442289,"ECCENTRICITY":0.0001879,"INCLINATION":87.8856,"RA_OF_ASC_NODE":54.7678,"ARG_OF_PERICENTER":77.0647,"MEAN_ANOMALY":283.0691,"EPHEMERIS_TYPE":0,"CLASSIFICATION_TYPE":"U","NORAD_CAT_ID":47293,"ELEMENT_SET_NO":999,"REV_AT_EPOCH":22225,"BSTAR":-0.00082943,"MEAN_MOTION_DOT":-2.86e-6,"MEAN_MOTION_DDOT":0},{"OBJECT_NAME":"ONEWEB-0115","OBJECT_ID":"2021-025A","EPOCH":"2025-07-29T20:50:22.681248","MEAN_MOTION":13.13468215,"ECCENTRICITY":0.0001824,"INCLINATION":87.8963,"RA_OF_ASC_NODE":24.2454,"ARG_OF_PERICENTER":92.495,"MEAN_ANOMALY":267.6388,"EPHEMERIS_TYPE":0,"CLASSIFICATION_TYPE":"U","NORAD_CAT_ID":48042,"ELEMENT_SET_NO":999,"REV_AT_EPOCH":21129,"BSTAR":0.00049375,"MEAN_MOTION_DOT":1.93e-6,"MEAN_MOTION_DDOT":0},{"OBJECT_NAME":"ONEWEB-0152","OBJECT_ID":"2021-025B","EPOCH":"2025-07-29T21:09:51.833088","MEAN_MOTION":13.13468671,"ECCENTRICITY":0.0001912,"INCLINATION":87.8965,"RA_OF_ASC_NODE":24.257,"ARG_OF_PERICENTER":91.4251,"MEAN_ANOMALY":268.7097,"EPHEMERIS_TYPE":0,"CLASSIFICATION_TYPE":"U","NORAD_CAT_ID":48043,"ELEMENT_SET_NO":999,"REV_AT_EPOCH":21125,"BSTAR":-0.00037604,"MEAN_MOTION_DOT":-1.25e-6,"MEAN_MOTION_DDOT":0},{"OBJECT_NAME":"ONEWEB-0153","OBJECT_ID":"2021-025C","EPOCH":"2025-07-29T13:19:24.178944","MEAN_MOTION":13.13469544,"ECCENTRICITY":0.0001745,"INCLINATION":87.8968,"RA_OF_ASC_NODE":24.3203,"ARG_OF_PERICENTER":91.8475,"MEAN_ANOMALY":268.2854,"EPHEMERIS_TYPE":0,"CLASSIFICATION_TYPE":"U","NORAD_CAT_ID":48044,"ELEMENT_SET_NO":999,"REV_AT_EPOCH":21119,"BSTAR":0.0010657,"MEAN_MOTION_DOT":4.02e-6,"MEAN_MOTION_DDOT":0},{"OBJECT_NAME":"ONEWEB-0154","OBJECT_ID":"2021-025D","EPOCH":"2025-07-29T11:24:49.526208","MEAN_MOTION":13.13469049,"ECCENTRICITY":0.0001824,"INCLINATION":87.8962,"RA_OF_ASC_NODE":24.3348,"ARG_OF_PERICENTER":89.441,"MEAN_ANOMALY":270.6928,"EPHEMERIS_TYPE":0,"CLASSIFICATION_TYPE":"U","NORAD_CAT_ID":48045,"ELEMENT_SET_NO":999,"REV_AT_EPOCH":21114,"BSTAR":0.00089253,"MEAN_MOTION_DOT":3.39e-6,"MEAN_MOTION_DDOT":0},{"OBJECT_NAME":"ONEWEB-0116","OBJECT_ID":"2021-025E","EPOCH":"2025-07-29T21:29:21.841152","MEAN_MOTION":13.1346924,"ECCENTRICITY":0.000195,"INCLINATION":87.8967,"RA_OF_ASC_NODE":24.2317,"ARG_OF_PERICENTER":92.9562,"MEAN_ANOMALY":267.179,"EPHEMERIS_TYPE":0,"CLASSIFICATION_TYPE":"U","NORAD_CAT_ID":48046,"ELEMENT_SET_NO":999,"REV_AT_EPOCH":21134,"BSTAR":-0.00090184,"MEAN_MOTION_DOT":-3.17e-6,"MEAN_MOTION_DDOT":0},{"OBJECT_NAME":"ONEWEB-0150","OBJECT_ID":"2021-025F","EPOCH":"2025-07-29T20:55:14.574144","MEAN_MOTION":13.13468884,"ECCENTRICITY":0.0001661,"INCLINATION":87.8965,"RA_OF_ASC_NODE":24.2322,"ARG_OF_PERICENTER":96.7453,"MEAN_ANOMALY":263.3865,"EPHEMERIS_TYPE":0,"CLASSIFICATION_TYPE":"U","NORAD_CAT_ID":48047,"ELEMENT_SET_NO":999,"REV_AT_EPOCH":21123,"BSTAR":0.00024453,"MEAN_MOTION_DOT":1.02e-6,"MEAN_MOTION_DDOT":0},{"OBJECT_NAME":"ONEWEB-0107","OBJECT_ID":"2021-025G","EPOCH":"2025-07-29T20:57:40.781088","MEAN_MOTION":13.13469106,"ECCENTRICITY":0.0001516,"INCLINATION":87.8966,"RA_OF_ASC_NODE":24.2301,"ARG_OF_PERICENTER":85.0669,"MEAN_ANOMALY":275.0633,"EPHEMERIS_TYPE":0,"CLASSIFICATION_TYPE":"U","NORAD_CAT_ID":48048,"ELEMENT_SET_NO":999,"REV_AT_EPOCH":21121,"BSTAR":0.00014464,"MEAN_MOTION_DOT":6.6e-7,"MEAN_MOTION_DDOT":0},{"OBJECT_NAME":"ONEWEB-0101","OBJECT_ID":"2021-025H","EPOCH":"2025-07-29T12:45:15.181344","MEAN_MOTION":13.13472377,"ECCENTRICITY":0.0001755,"INCLINATION":87.8966,"RA_OF_ASC_NODE":24.3376,"ARG_OF_PERICENTER":86.4515,"MEAN_ANOMALY":273.6815,"EPHEMERIS_TYPE":0,"CLASSIFICATION_TYPE":"U","NORAD_CAT_ID":48049,"ELEMENT_SET_NO":999,"REV_AT_EPOCH":21114,"BSTAR":0.00019148,"MEAN_MOTION_DOT":8.3e-7,"MEAN_MOTION_DDOT":0},{"OBJECT_NAME":"ONEWEB-0113","OBJECT_ID":"2021-025J","EPOCH":"2025-07-29T12:35:06.911520","MEAN_MOTION":13.13976031,"ECCENTRICITY":0.0001855,"INCLINATION":87.8963,"RA_OF_ASC_NODE":24.2878,"ARG_OF_PERICENTER":95.0036,"MEAN_ANOMALY":265.1305,"EPHEMERIS_TYPE":0,"CLASSIFICATION_TYPE":"U","NORAD_CAT_ID":48050,"ELEMENT_SET_NO":999,"REV_AT_EPOCH":21123,"BSTAR":-0.00026022,"MEAN_MOTION_DOT":-8.3e-7,"MEAN_MOTION_DDOT":0},{"OBJECT_NAME":"ONEWEB-0112","OBJECT_ID":"2021-025K","EPOCH":"2025-07-29T21:04:59.538432","MEAN_MOTION":13.13468483,"ECCENTRICITY":0.0001718,"INCLINATION":87.8963,"RA_OF_ASC_NODE":24.2254,"ARG_OF_PERICENTER":93.6522,"MEAN_ANOMALY":266.4804,"EPHEMERIS_TYPE":0,"CLASSIFICATION_TYPE":"U","NORAD_CAT_ID":48051,"ELEMENT_SET_NO":999,"REV_AT_EPOCH":21129,"BSTAR":-0.00017484,"MEAN_MOTION_DOT":-5.1e-7,"MEAN_MOTION_DDOT":0},{"OBJECT_NAME":"ONEWEB-0156","OBJECT_ID":"2021-025L","EPOCH":"2025-07-29T12:08:41.587296","MEAN_MOTION":13.13469281,"ECCENTRICITY":0.000165,"INCLINATION":87.8964,"RA_OF_ASC_NODE":24.312,"ARG_OF_PERICENTER":91.849,"MEAN_ANOMALY":268.2828,"EPHEMERIS_TYPE":0,"CLASSIFICATION_TYPE":"U","NORAD_CAT_ID":48052,"ELEMENT_SET_NO":999,"REV_AT_EPOCH":21121,"BSTAR":-0.00068156,"MEAN_MOTION_DOT":-2.36e-6,"MEAN_MOTION_DDOT":0}]
