ONEWEB-0142             
1 47288U 20100AG  25210.59656064 -.00000399  00000+0 -11453-2 0  9991
2 47288  87.8864  54.7955 0001355  84.2178 275.9105 13.12443082222352
ONEWEB-0143             
1 47289U 20100AH  25210.52991041 -.00000237  00000+0 -69360-3 0  9994
2 47289  87.8862  54.8068 0001784  85.8882 274.2450 13.12443035222322
ONEWEB-0144             
1 47290U 20100AJ  25210.57857367 -.00000087  00000+0 -27857-3 0  9991
2 47290  87.8846  54.7767 0001540  78.4988 281.6313 13.12440764222254
ONEWEB-0145             
1 47291U 20100AK  25210.54938124  .00000337  00000+0  90208-3 0  9996
2 47291  87.8861  54.8097 0001715  82.6375 277.4948 13.12443079222440
ONEWEB-0146             
1 47292U 20100AL  25210.54613590  .00000204  00000+0  53272-3 0  9997
2 47292  87.8854  54.7972 0002064  91.6907 268.4458 13.12442876222353
ONEWEB-0147             
1 47293U 20100AM  25210.58830316 -.00000286  00000+0 -82943-3 0  9998
2 47293  87.8856  54.7678 0001879  77.0647 283.0691 13.12442289222250
ONEWEB-0115             
1 48042U 21025A   25210.86831807  .00000193  00000+0  49375-3 0  9992
2 48042  87.8963  24.2454 0001824  92.4950 267.6388 13.13468215211295
ONEWEB-0152             
1 48043U 21025B   25210.88184992 -.00000125  00000+0 -37604-3 0  9990
2 48043  87.8965  24.2570 0001912  91.4251 268.7097 13.13468671211259
ONEWEB-0153             
1 48044U 21025C   25210.55514096  .00000402  00000+0  10657-2 0  9991
2 48044  87.8968  24.3203 0001745  91.8475 268.2854 13.13469544211192
ONEWEB-0154             
1 48045U 21025D   25210.47557322  .00000339  00000+0  89253-3 0  9990
2 48045  87.8962  24.3348 0001824  89.4410 270.6928 13.13469049211141
ONEWEB-0116             
1 48046U 21025E   25210.89539168 -.00000317  00000+0 -90184-3 0  9998
2 48046  87.8967  24.2317 0001950  92.9562 267.1790 13.13469240211342
ONEWEB-0150             
1 48047U 21025F   25210.87169646  .00000102  00000+0  24453-3 0  9993
2 48047  87.8965  24.2322 0001661  96.7453 263.3865 13.13468884211239
ONEWEB-0107             
1 48048U 21025G   25210.87338867  .00000066  00000+0  14464-3 0  9997
2 48048  87.8966  24.2301 0001516  85.0669 275.0633 13.13469106211216
ONEWEB-0101             
1 48049U 21025H   25210.53142571  .00000083  00000+0  19148-3 0  9999
2 48049  87.8966  24.3376 0001755  86.4515 273.6815 13.13472377211142
ONEWEB-0113             
1 48050U 21025J   25210.52438555 -.00000083  00000+0 -26022-3 0  9991
2 48050  87.8963  24.2878 0001855  95.0036 265.1305 13.13976031211238
ONEWEB-0112             
1 48051U 21025K   25210.87846688 -.00000051  00000+0 -17484-3 0  9997
2 48051  87.8963  24.2254 0001718  93.6522 266.4804 13.13468483211290
ONEWEB-0156             
1 48052U 21025L   25210.50603689 -.00000236  00000+0 -68156-3 0  9997
2 48052  87.8964  24.3120 0001650  91.8490 268.2828 13.13469281211219
